{
    "links": {
        "self": "http://www.neowsapp.com/rest/v1/neo/3617155?api_key=iIulBulltgU6a56xZRHN4H3l9WmuAYTsLGpBGhQ2"
    },
    "id": "3617155",
    "neo_reference_id": "3617155",
    "name": "(2012 VC37)",
    "designation": "2012 VC37",
    "nasa_jpl_url": "http://ssd.jpl.nasa.gov/sbdb.cgi?sstr=3617155",
    "absolute_magnitude_h": 24.4,
    "estimated_diameter": {
        "kilometers": {
            "estimated_diameter_min": 0.0350392641,
            "estimated_diameter_max": 0.0783501764
        },
        "meters": {
            "estimated_diameter_min": 35.0392641108,
            "estimated_diameter_max": 78.3501764334
        },
        "miles": {
            "estimated_diameter_min": 0.0217723826,
            "estimated_diameter_max": 0.0486845275
        },
        "feet": {
            "estimated_diameter_min": 114.9582192654,
            "estimated_diameter_max": 257.0543928497
        }
    },
    "is_potentially_hazardous_asteroid": false,
    "close_approach_data": [
        {
            "close_approach_date": "2012-11-10",
            "close_approach_date_full": "2012-Nov-10 10:54",
            "epoch_date_close_approach": 1352544840000,
            "relative_velocity": {
                "kilometers_per_second": "8.765149011",
                "kilometers_per_hour": "31554.5364396322",
                "miles_per_hour": "19606.7618227259"
            },
            "miss_distance": {
                "astronomical": "0.0371575307",
                "lunar": "14.4542794423",
                "kilometers": "5558687.447179609",
                "miles": "3454008.2151882442"
            },
            "orbiting_body": "Earth"
        }
    ],
    "orbital_data": {
        "orbit_id": "6",
        "orbit_determination_date": "2017-04-06 08:48:05",
        "first_observation_date": "2012-11-08",
        "last_observation_date": "2012-11-15",
        "data_arc_in_days": 7,
        "observations_used": 19,
        "orbit_uncertainty": "8",
        "minimum_orbit_intersection": ".0340451",
        "jupiter_tisserand_invariant": "2.994",
        "epoch_osculation": "2456243.5",
        "eccentricity": ".6393291068519504",
        "semi_major_axis": "2.77880889035501",
        "inclination": "3.934351656666396",
        "ascending_node_longitude": "31.38607456386858",
        "orbital_period": "1691.945798743435",
        "perihelion_distance": "1.002235484372082",
        "perihelion_argument": "34.33420802597805",
        "aphelion_distance": "4.555382296337938",
        "perihelion_time": "2456255.484291759845",
        "mean_anomaly": "357.4500690053143",
        "mean_motion": ".2127727733756972",
        "equinox": "J2000",
        "orbit_class": {
            "orbit_class_type": "APO",
            "orbit_class_description": "Near-Earth asteroid orbits which cross the Earth’s orbit similar to that of 1862 Apollo",
            "orbit_class_range": "a (semi-major axis) > 1.0 AU; q (perihelion) < 1.017 AU"
        }
    },
    "is_sentry_object": false
}